GOES 19
1 60133U 24119A   26193.83325431 -.00000249  00000+0  00000+0 0  9994
2 60133   0.0079 286.6205 0000463 289.4526 299.4176  1.00272104  7225
